[{"OBJECT_NAME":"STARLINK-30106","OBJECT_ID":"2023-056C","EPOCH":"2026-03-09T22:00:01.999584","MEAN_MOTION":15.26749083,"ECCENTRICITY":0.00016875,"INCLINATION":43.003,"RA_OF_ASC_NODE":207.2618,"ARG_OF_PERICENTER":291.4212,"MEAN_ANOMALY":266.2264,"EPHEMERIS_TYPE":0,"CLASSIFICATION_TYPE":"U","NORAD_CAT_ID":56288,"ELEMENT_SET_NO":999,"REV_AT_EPOCH":577,"BSTAR":-0.00051497468,"MEAN_MOTION_DOT":-0.00014051,"MEAN_MOTION_DDOT":0},{"OBJECT_NAME":"OBJECT C","OBJECT_ID":"2023-091C","EPOCH":"2026-03-09T22:19:51.473568","MEAN_MOTION":15.24718365,"ECCENTRICITY":0.0013257,"INCLINATION":97.5143,"RA_OF_ASC_NODE":130.8747,"ARG_OF_PERICENTER":96.9232,"MEAN_ANOMALY":263.3514,"EPHEMERIS_TYPE":0,"CLASSIFICATION_TYPE":"U","NORAD_CAT_ID":57168,"ELEMENT_SET_NO":999,"REV_AT_EPOCH":14912,"BSTAR":0.00051490472,"MEAN_MOTION_DOT":0.00012709,"MEAN_MOTION_DDOT":0}]
